GLOBALSTAR M075         
1 37192U 10054E   25226.43845089 -.00000088  00000+0  85291-4 0  9995
2 37192  51.9976   4.1752 0000779  97.5293 301.9539 12.62266640683202
GLOBALSTAR M073         
1 37193U 10054F   25226.62408265 -.00000088  00000+0  90388-4 0  9991
2 37193  52.0055 277.4760 0000572 108.0478  55.7118 12.62261834685211
GLOBALSTAR M083         
1 37739U 11033A   25226.39647108 -.00000107  00000+0 -17445-4 0  9996
2 37739  51.9840 226.8202 0000299  61.4766  85.9336 12.62275007654203
GLOBALSTAR M088         
1 37740U 11033B   25226.45459796 -.00000082  00000+0  12376-3 0  9997
2 37740  52.0210 132.3249 0000522  45.4351 127.0265 12.62267147649750
GLOBALSTAR M091         
1 37741U 11033C   25226.38816788 -.00000102  00000+0  94447-5 0  9992
2 37741  51.9994  95.9441 0000823  47.6269 123.8648 12.62269694650538
GLOBALSTAR M085         
1 37742U 11033D   25226.50193895 -.00000112  00000+0 -45667-4 0  9995
2 37742  52.0133  46.6208 0000885  66.5285 322.3555 12.62263999651060
GLOBALSTAR M081         
1 37743U 11033E   25226.24319072 -.00000108  00000+0 -23552-4 0  9998
2 37743  51.9964  50.1959 0001013  76.0199  95.1234 12.62267555651171
GLOBALSTAR M089         
1 37744U 11033F   25226.58379289 -.00000103  00000+0  60482-5 0  9990
2 37744  51.9954   3.3750 0000914 114.0240 346.6405 12.62265671652069
